ONEWEB-0389             
1 50469U 21132A   26043.96713795 -.00000160  00000+0 -44522-3 0  9993
2 50469  87.9109  30.5441 0002119  74.3260 285.8105 13.17649699201728
ONEWEB-0390             
1 50470U 21132B   26043.96883588  .00000039  00000+0  66922-4 0  9995
2 50470  87.9108  30.5442 0002104  91.2733 268.8640 13.17650567201728
ONEWEB-0391             
1 50471U 21132C   26043.97052198  .00000060  00000+0  12006-3 0  9999
2 50471  87.9107  30.5532 0002658  75.4216 284.7210 13.17648654201726
ONEWEB-0392             
1 50472U 21132D   26044.00088454 -.00000327  00000+0 -87623-3 0  9994
2 50472  87.9115  30.5054 0002158  78.4542 281.6831 13.17648583201765
ONEWEB-0393             
1 50473U 21132E   26043.97404195 -.00000049  00000+0 -15965-3 0  9995
2 50473  87.9117  30.5339 0001992  81.7097 278.4260 13.17649036201754
ONEWEB-0394             
1 50474U 21132F   26043.88801360 -.00000136  00000+0 -37738-3 0  9990
2 50474  87.9231   0.1161 0001928  75.2467 284.8879 13.18685945205218
ONEWEB-0395             
1 50475U 21132G   26044.03219048 -.00000472  00000+0 -13666-2 0  9991
2 50475  87.8820  45.7726 0002118  89.6569 270.4801 13.11417082199449
ONEWEB-0396             
1 50476U 21132H   26043.88141338 -.00000169  00000+0 -46130-3 0  9996
2 50476  87.9232   0.1298 0001912  79.0420 281.0927 13.18686451205256
ONEWEB-0397             
1 50477U 21132J   26043.89624992  .00000014  00000+0  32822-5 0  9992
2 50477  87.9232   0.1266 0001827  75.1824 284.9510 13.18683971205234
ONEWEB-0398             
1 50478U 21132K   26043.99998678  .00000355  00000+0  96630-3 0  9992
2 50478  87.8831  45.7573 0002156  93.5822 266.5552 13.11415608199331
ONEWEB-0399             
1 50479U 21132L   26043.98642939  .00000563  00000+0  15525-2 0  9992
2 50479  87.8828  45.7697 0002034  73.0021 287.1330 13.11417866199324
ONEWEB-0400             
1 50480U 21132M   26043.87481994 -.00000128  00000+0 -35760-3 0  9997
2 50480  87.9233   0.1209 0001952  82.9173 277.2181 13.18686086205226
ONEWEB-0401             
1 50481U 21132N   26043.84347739  .00000031  00000+0  46163-4 0  9994
2 50481  87.9230   0.1233 0001632  77.6916 282.4399 13.18684621205224
ONEWEB-0402             
1 50482U 21132P   26043.88306506 -.00000105  00000+0 -30025-3 0  9999
2 50482  87.9230   0.1069 0001372  76.2554 283.8731 13.18686534205259
ONEWEB-0403             
1 50483U 21132Q   26043.83192722 -.00000261  00000+0 -69417-3 0  9998
2 50483  87.9225   0.1405 0001959  78.0661 282.0691 13.18685338205200
ONEWEB-0404             
1 50484U 21132R   26043.96777176 -.00000148  00000+0 -45226-3 0  9991
2 50484  87.8833  45.7811 0002075  81.6276 278.5087 13.11418536199414
ONEWEB-0405             
1 50485U 21132S   26043.84676701 -.00000177  00000+0 -48261-3 0  9995
2 50485  87.9232   0.1200 0001700  74.4808 285.6512 13.18685339205606
ONEWEB-0406             
1 50486U 21132T   26043.83689364  .00000021  00000+0  20796-4 0  9994
2 50486  87.9232   0.1491 0002217  70.7743 289.3629 13.18686077205239
ONEWEB-0407             
1 50487U 21132U   26043.83027567 -.00000248  00000+0 -66231-3 0  9992
2 50487  87.9224   0.1331 0001734  80.1063 280.0265 13.18685810205178
ONEWEB-0409             
1 50488U 21132V   26043.96607278 -.00000214  00000+0 -63930-3 0  9996
2 50488  87.8843  45.7603 0002182  86.8550 273.2828 13.11418979199303
ONEWEB-0412             
1 50489U 21132W   26043.89460653 -.00000199  00000+0 -53813-3 0  9994
2 50489  87.9231   0.1340 0001627  73.0111 287.1200 13.18685813205275
ONEWEB-0413             
1 50490U 21132X   26043.82368194  .00000043  00000+0  75884-4 0  9995
2 50490  87.9221   0.1553 0001539  79.6855 280.4450 13.18684180205203
ONEWEB-0414             
1 50491U 21132Y   26043.88472573  .00000019  00000+0  14962-4 0  9992
2 50491  87.9228   0.1122 0001788  72.8369 287.2958 13.18686395205246
ONEWEB-0417             
1 50492U 21132Z   26043.89295078  .00000042  00000+0  74323-4 0  9990
2 50492  87.9223   0.1401 0002106  76.8666 283.2701 13.18684459205220
ONEWEB-0418             
1 50493U 21132AA  26043.82685844  .00001105  00000+0  27711-2 0  9996
2 50493  87.9225   0.1418 0002273  74.0208 286.1174 13.18682492205274
ONEWEB-0419             
1 50494U 21132AB  26043.84512516 -.00000304  00000+0 -80490-3 0  9990
2 50494  87.9240   0.1376 0001939  79.1851 280.9499 13.18685619205190
ONEWEB-0420             
1 50495U 21132AC  26043.88635396 -.00000228  00000+0 -61230-3 0  9993
2 50495  87.9230   0.1418 0001746  83.1896 276.9435 13.18685968205199
ONEWEB-0421             
1 50496U 21132AD  26043.87975968 -.00000129  00000+0 -36047-3 0  9993
2 50496  87.9232   0.1348 0001729  75.9523 284.1801 13.18685823205234
ONEWEB-0424             
1 50497U 21132AE  26043.84017915 -.00000164  00000+0 -44979-3 0  9992
2 50497  87.9229   0.1381 0002131  88.2937 271.8439 13.18685569205251
ONEWEB-0426             
1 50498U 21132AF  26043.95233933 -.00000225  00000+0 -60411-3 0  9992
2 50498  87.9232   0.1083 0002076  62.3356 297.7986 13.18685686205211
ONEWEB-0427             
1 50499U 21132AG  26043.83853080  .00000037  00000+0  61884-4 0  9996
2 50499  87.9229   0.1170 0002083  77.8154 282.3211 13.18684978205225
ONEWEB-0429             
1 50500U 21132AH  26043.82532041  .00000017  00000+0  10806-4 0  9995
2 50500  87.9230   0.1522 0001784  83.5036 276.6299 13.18684202205199
ONEWEB-0430             
1 50501U 21132AJ  26043.88966905 -.00000273  00000+0 -72462-3 0  9993
2 50501  87.9239   0.1385 0001875  72.0383 288.0953 13.18685618205247
ONEWEB-0432             
1 50502U 21132AK  26043.84619282  .00000080  00000+0  17096-3 0  9999
2 50502  87.9225   0.1134 0002603  84.1874 275.9555 13.18642109205199
ONEWEB-0440             
1 50503U 21132AL  26043.83357333 -.00000296  00000+0 -78306-3 0  9997
2 50503  87.9226   0.1374 0001479  73.9656 286.1639 13.18685199205183
ONEWEB-0450             
1 50504U 21132AM  26043.82710776  .00000060  00000+0  12048-3 0  9999
2 50504  87.9219   0.1570 0001711  87.8021 272.3307 13.18683869205218
ONEWEB-0410             
1 51622U 22012A   26043.98571337 -.00000217  00000+0 -59190-3 0  9999
2 51622  87.9114  30.5174 0002916  62.0977 298.0450 13.17648715197342
ONEWEB-0411             
1 51623U 22012B   26044.08477612 -.00000264  00000+0 -79191-3 0  9998
2 51623  87.8753  60.9884 0002146 105.9351 254.2013 13.10375641193033
ONEWEB-0415             
1 51624U 22012C   26044.08144968 -.00000474  00000+0 -13935-2 0  9990
2 51624  87.8753  60.9920 0002038  97.1650 262.9709 13.10374904193038
ONEWEB-0416             
1 51625U 22012D   26044.09308160  .00000112  00000+0  28506-3 0  9996
2 51625  87.8756  61.0104 0002339  95.5711 264.5683 13.10375250193070
ONEWEB-0422             
1 51626U 22012E   26043.99582044 -.00000275  00000+0 -74196-3 0  9998
2 51626  87.9112  30.5185 0001248  93.1918 266.9356 13.17648638197458
ONEWEB-0423             
1 51627U 22012F   26043.98907877 -.00000010  00000+0 -60027-4 0  9999
2 51627  87.9113  30.5292 0001775  82.8269 277.3064 13.17648763197347
ONEWEB-0425             
1 51628U 22012G   26044.10305217  .00000529  00000+0  14796-2 0  9998
2 51628  87.8759  60.9841 0001996  80.5109 279.6243 13.10373192193077
ONEWEB-0428             
1 51629U 22012H   26044.08311130 -.00000319  00000+0 -95011-3 0  9996
2 51629  87.8754  61.0031 0001815  92.1098 268.0237 13.10374890193039
ONEWEB-0431             
1 51630U 22012J   26044.12946285 -.00000115  00000+0 -36540-3 0  9994
2 51630  87.8754  60.9773 0002019 108.1447 251.9900 13.10368125193093
ONEWEB-0434             
1 51631U 22012K   26044.03015355  .00000722  00000+0  20313-2 0  9992
2 51631  87.8753  61.0271 0002052  73.3649 286.7704 13.10372856193063
ONEWEB-0435             
1 51632U 22012L   26044.03830978  .00000638  00000+0  17904-2 0  9997
2 51632  87.8745  61.0166 0001522  97.6599 262.4701 13.10370615193050
ONEWEB-0436             
1 51633U 22012M   26043.98064235 -.00000026  00000+0 -10137-3 0  9991
2 51633  87.9112  30.5086 0001723  89.7607 270.3721 13.17648533197325
ONEWEB-0438             
1 51634U 22012N   26044.09806992  .00000413  00000+0  11463-2 0  9999
2 51634  87.8753  61.0051 0001985  86.1526 273.9829 13.10374377193091
ONEWEB-0439             
1 51635U 22012P   26044.10137469  .00001403  00000+0  39806-2 0  9999
2 51635  87.8753  60.9935 0001798  87.0145 273.1188 13.10382247193073
ONEWEB-0442             
1 51636U 22012Q   26043.97304140 -.00000544  00000+0 -14352-2 0  9992
2 51636  87.9104  30.5517 0002332  73.7082 286.4306 13.17650607197316
ONEWEB-0443             
1 51637U 22012R   26043.99246718 -.00000185  00000+0 -51041-3 0  9999
2 51637  87.9102  30.5511 0001686  75.5357 284.5961 13.17649797197364
ONEWEB-0444             
1 51638U 22012S   26044.09142441  .00000087  00000+0  21325-3 0  9991
2 51638  87.8756  60.9946 0001825  90.0826 270.0510 13.10375543193089
ONEWEB-0445             
1 51639U 22012T   26044.18936704  .00000563  00000+0  15757-2 0  9995
2 51639  87.8764  60.9514 0002064  97.2350 262.9012 13.10370988193105
ONEWEB-0446             
1 51640U 22012U   26044.08976263  .00000025  00000+0  35151-4 0  9995
2 51640  87.8753  61.0109 0001991  92.3926 267.7430 13.10375368193070
ONEWEB-0448             
1 51641U 22012V   26044.09474637  .00000327  00000+0  90132-3 0  9999
2 51641  87.8752  61.0090 0001836  91.2014 268.9323 13.10375390193049
ONEWEB-0449             
1 51642U 22012W   26044.02337226  .00000532  00000+0  14864-2 0  9990
2 51642  87.8763  60.9992 0001982  78.8623 281.2727 13.10374807193048
ONEWEB-0451             
1 51643U 22012X   26043.97726757  .00000013  00000+0  85446-6 0  9997
2 51643  87.9116  30.5052 0001904  81.9405 278.1943 13.17648160197300
ONEWEB-0452             
1 51644U 22012Y   26043.97558435 -.00000188  00000+0 -51784-3 0  9994
2 51644  87.9105  30.5539 0001733  75.9577 284.1748 13.17648867197317
